1 51110C 22005G   22252.82965278 -.00017460  00000+0 -10950-2 0  2525
2 51110  53.2142 261.1809 0002037  44.6062 155.5189 15.08851206    19
1 51110C 22005G   22253.16298611 -.00001138  00000+0 -71402-4 0  2530
2 51110  53.2141 259.6843 0002013  44.5186 167.2140 15.08828962    18
1 51110C 22005G   22253.49770833  .00013105  00000+0  82187-3 0  2533
2 51110  53.2139 258.1816 0002013  45.0544 185.8110 15.08820687    12
1 51110C 22005G   22254.17201389  .00004199  00000+0  26323-3 0  2548
2 51110  53.2138 255.1542 0002042  46.5130 249.0359 15.08840945    10
1 51110C 22005G   22254.48520833 -.00005992  00000+0 -37567-3 0  2546
2 51110  53.2138 253.7482 0002028  46.3340 151.3596 15.08849472    14
1 51110C 22005G   22254.83729167 -.00010029  00000+0 -62892-3 0  2542
2 51110  53.2139 252.1674 0002025  46.0212 265.1833 15.08845922    17
1 51110C 22005G   22255.15881944  .00006580  00000+0  41260-3 0  2552
2 51110  53.2139 250.7238 0002030  45.6869 212.9617 15.08830806    11
1 51110C 22005G   22255.51159722 -.00002392  00000+0 -14998-3 0  2551
2 51110  53.2140 249.1400 0002054  45.2432 330.6643 15.08844893    12
1 51110C 22005G   22255.84145833 -.00010084  00000+0 -63234-3 0  2559
2 51110  53.2142 247.6591 0002018  44.7548 323.8836 15.08846703    10
1 51110C 22005G   22256.15743056 -.00004865  00000+0 -30514-3 0  2561
2 51110  53.2143 246.2404 0002016  44.1122 241.7751 15.08833891    17
1 51110C 22005G   22256.48520833 -.00009593  00000+0 -60176-3 0  2563
2 51110  53.2145 244.7690 0002009  43.5322 223.7445 15.08834762    14
1 51110C 22005G   22256.85812500  .00012184  00000+0  76429-3 0  2565
2 51110  53.2148 243.0948 0002016  42.9541  91.0437 15.08812956    17
1 51110C 22005G   22257.14701389  .00008170  00000+0  51248-3 0  2573
2 51110  53.2149 241.7979 0002032  43.7860 220.2370 15.08819616    10
1 51110C 22005G   22257.47062500  .00015152  00000+0  95015-3 0  2572
2 51110  53.2151 240.3452 0002041  43.8211 178.9394 15.08822730    11
1 51110C 22005G   22257.83590278  .00011806  00000+0  74013-3 0  2577
2 51110  53.2153 238.7054 0002080  44.6894   3.2647 15.08836383    11
1 51110C 22005G   22258.15812500 -.00011597  00000+0 -72699-3 0  2586
2 51110  53.2154 237.2589 0002046  44.5868 314.5730 15.08860381    17
1 51110C 22005G   22258.46576389  .00000324  00000+0  20312-4 0  2582
2 51110  53.2154 235.8779 0002031  44.3835 186.7485 15.08845972    13
1 51110C 22005G   22258.82687500  .00002201  00000+0  13806-3 0  2585
2 51110  53.2155 234.2568 0001944  42.4779 351.2210 15.08826288    15
1 51110C 22005G   22259.15812500  .00008370  00000+0  52502-3 0  2592
2 51110  53.2155 232.7698 0001934  42.6717 351.2871 15.08818244    11
1 51110C 22005G   22259.48451389  .00012673  00000+0  79469-3 0  2594
2 51110  53.2154 231.3047 0001952  43.1701 324.6192 15.08824655    15
1 51110C 22005G   22259.82270833 -.00011368  00000+0 -71291-3 0  2592
2 51110  53.2153 229.7866 0001911  42.6493   3.1377 15.08845571    15
1 51110C 22005G   22260.16437500 -.00003480  00000+0 -21826-3 0  2604
2 51110  53.2151 228.2528 0001871  42.3188  60.3607 15.08829079    11
1 51110C 22005G   22260.48243056  .00013215  00000+0  82885-3 0  2607
2 51110  53.2149 226.8251 0001877  43.1269 348.1047 15.08817606    18
1 51110C 22005G   22260.83173611  .00011575  00000+0  72580-3 0  2603
2 51110  53.2147 225.2571 0001870  43.9226  85.6883 15.08827321    14
1 51110C 22005G   22261.14770833  .00011363  00000+0  71241-3 0  2616
2 51110  53.2145 223.8387 0001876  44.8746   1.9699 15.08834099    10
1 51110C 22005G   22261.48243056 -.00005107  00000+0 -32016-3 0  2613
2 51110  53.2143 222.3361 0001944  46.6843  19.2952 15.08854945    14
1 51110C 22005G   22261.83173611 -.00006991  00000+0 -43831-3 0  2610
2 51110  53.2142 220.7680 0001982  47.7398 116.6567 15.08850308    11
1 51110C 22005G   22262.14770833  .00010818  00000+0  67823-3 0  2623
2 51110  53.2140 219.3495 0002009  49.4520  32.2038 15.08833174    12
1 51110C 22005G   22262.49145833  .00014679  00000+0  92073-3 0  2621
2 51110  53.2140 217.8064 0002044  53.2592  96.5839 15.08811846    12
1 51110C 22005G   22262.83312500  .00013750  00000+0  86227-3 0  2629
2 51110  53.2139 216.2726 0002062  53.6544 153.0450 15.08822555    16
1 51110C 22005G   22263.15951389  .00015432  00000+0  96755-3 0  2636
2 51110  53.2140 214.8073 0002098  53.8712 126.6709 15.08827736    14
1 51110C 22005G   22263.49006944 -.00003488  00000+0 -21864-3 0  2630
2 51110  53.2140 213.3233 0002080  53.9513 123.0755 15.08852865    10
1 51110C 22005G   22263.90256944 -.00012105  00000+0 -75901-3 0  2630
2 51110  53.2142 211.4714 0002070  53.2499 205.6398 15.08853586    11
1 51110C 22005G   22264.10951389 -.00007806  00000+0 -48950-3 0  2645
2 51110  53.2144 210.5423 0002049  52.9308 250.6723 15.08844806    18
1 51110C 22005G   22264.45048611 -.00002230  00000+0 -13984-3 0  2643
2 51110  53.2146 209.0116 0002046  52.3636 304.3525 15.08838951    18
1 51110C 22005G   22264.79145833  .00011629  00000+0  72923-3 0  2642
2 51110  53.2148 207.4808 0002049  52.0966 357.7311 15.08826409    16
1 51110C 22005G   22265.11229167 -.00011481  00000+0 -72006-3 0  2653
2 51110  53.2150 206.0405 0002022  51.6888 301.7854 15.08844605    15
1 51110C 22005G   22265.45256944  .00000671  00000+0  42096-4 0  2657
2 51110  53.2153 204.5129 0002011  51.7146 351.0996 15.08831122    15
1 51110C 22005G   22265.77895833  .00013147  00000+0  82446-3 0  2652
2 51110  53.2155 203.0477 0002018  51.4847 325.1748 15.08822017    19
1 51110C 22005G   22266.12895833  .00015858  00000+0  99424-3 0  2668
2 51110  53.2157 201.4765 0002018  52.4363  66.3856 15.08829063    19
1 51110C 22005G   22266.48243056 -.00001319  00000+0 -82699-4 0  2667
2 51110  53.2158 199.8898 0001987  52.3716 187.4838 15.08853817    11
1 51110C 22005G   22266.81645833 -.00010317  00000+0 -64667-3 0  2665
2 51110  53.2159 198.3902 0001959  52.8310 202.4051 15.08863197    13
1 51110C 22005G   22267.14770833  .00007238  00000+0  45369-3 0  2676
2 51110  53.2160 196.9032 0001912  52.3282 203.2140 15.08846396    15
1 51110C 22005G   22267.47340278 -.00015468  00000+0 -96999-3 0  2679
2 51110  53.2161 195.4412 0001883  52.2228 173.4078 15.08852602    13
1 51110C 22005G   22267.81159722 -.00005291  00000+0 -33186-3 0  2671
2 51110  53.2160 193.9230 0001895  53.4230 210.2294 15.08835372    17
1 51110C 22005G   22268.14215278  .00017830  00000+0  11182-2 0  2689
2 51110  53.2159 192.4392 0001928  54.5792 205.5740 15.08815647    16
1 51110C 22005G   22268.46298611 -.00009659  00000+0 -60573-3 0  2687
2 51110  53.2158 190.9991 0001896  54.6819 149.1034 15.08843607    14
1 51110C 22005G   22268.80881944 -.00005454  00000+0 -34205-3 0  2684
2 51110  53.2157 189.4466 0001879  54.9574 228.3566 15.08835732    15
1 51110C 22005G   22269.13312500  .00015832  00000+0  99298-3 0  2691
2 51110  53.2155 187.9909 0001883  54.6722 191.1742 15.08814837    11
1 51110C 22005G   22269.44493056  .00004068  00000+0  25507-3 0  2692
2 51110  53.2154 186.5913 0001873  55.1886  85.2281 15.08834663    16
1 51110C 22005G   22269.81020833 -.00017264  00000+0 -10827-2 0  2694
2 51110  53.2152 184.9515 0001859  54.4041 271.2061 15.08850864    17
1 51110C 22005G   22270.13729167  .00013529  00000+0  84848-3 0  2702
2 51110  53.2151 183.4832 0001865  54.7791 248.4769 15.08819702    11
1 51110C 22005G   22270.48590278  .00021240  00000+0  13313-2 0  2706
2 51110  53.2150 181.9183 0001875  54.2984 343.5698 15.08834514    18
1 51110C 22005G   22270.82756944  .00005394  00000+0  33791-3 0  2703
2 51110  53.2148 180.3844 0001866  54.6883  40.0612 15.08866668    14
1 51110C 22005G   22271.10118056 -.00024826  00000+0 -15558-2 0  2715
2 51110  53.2148 179.1561 0001847  53.3572  88.4298 15.08886305    12
1 51110C 22005G   22271.46368056 -.00000229  00000+0 -14367-4 0  2711
2 51110  53.2148 177.5287 0001794  49.8095 262.1037 15.08838642    13
1 51110C 22005G   22271.78659722 -.00016155  00000+0 -10130-2 0  2716
2 51110  53.2148 176.0790 0001772  49.9074 216.9805 15.08856054    17
1 51110C 22005G   22272.10673611  .00011545  00000+0  72395-3 0  2725
2 51110  53.2148 174.6418 0001793  49.2090 157.5893 15.08827449    15
1 51110C 22005G   22272.45881944 -.00010137  00000+0 -63565-3 0  2720
2 51110  53.2149 173.0612 0001833  49.9119 270.3694 15.08848865    17
1 51110C 22005G   22272.80187500 -.00005508  00000+0 -34535-3 0  2727
2 51110  53.2149 171.5210 0001876  51.3693 333.3513 15.08845149    17
1 51110C 22005G   22273.11229167 -.00004623  00000+0 -28992-3 0  2736
2 51110  53.2149 170.1275 0001878  51.7033 220.0704 15.08839084    12
1 51110C 22005G   22273.46993056  .00000239  00000+0  14980-4 0  2739
2 51110  53.2150 168.5219 0001821  50.6162   4.8503 15.08837997    18
1 51110C 22005G   22273.78798611 -.00007203  00000+0 -45167-3 0  2734
2 51110  53.2150 167.0940 0001779  49.7035 294.3188 15.08848652    18
1 51110C 22005G   22274.11993056  .00005928  00000+0  37173-3 0  2741
2 51110  53.2150 165.6039 0001790  50.2507 297.8327 15.08831873    15
1 51110C 22005G   22274.44215278 -.00028566  00000+0 -17919-2 0  2740
2 51110  53.2151 164.1574 0001766  49.9643 249.3130 15.08855373    18
1 51110C 22005G   22274.79215278 -.00008507  00000+0 -53376-3 0  2749
2 51110  53.2150 162.5861 0001753  50.8747 350.5883 15.08824548    10
1 51110C 22005G   22275.12479167  .00024680  00000+0  15482-2 0  2750
2 51110  53.2150 161.0929 0001747  50.9285 358.3428 15.08798119    15
1 51110C 22005G   22275.45048611  .00018941  00000+0  11878-2 0  2750
2 51110  53.2150 159.6309 0001742  51.3873 327.9251 15.08816767    19
1 51110C 22005G   22275.79701389  .00001011  00000+0  63381-4 0  2753
2 51110  53.2148 158.0752 0001712  51.9332  50.6558 15.08846526    10
1 51110C 22005G   22276.12340278 -.00003125  00000+0 -19588-3 0  2767
2 51110  53.2148 156.6101 0001706  51.8082  24.6413 15.08857682    12
